{
  "norad_id": 64257,
  "name": "STARLINK-34352",
  "history": [
    {
      "epoch": "2026-03-28T13:16:33.429216Z",
      "apogee_km": 476.1201240319797,
      "perigee_km": 474.19571881804313,
      "latitude_deg": -2.5472788185134436e-06,
      "longitude_deg": 4.004249913328935,
      "height_km": 476.14126356104686,
      "semi_major_axis_km": 6853.294921425011,
      "eccentricity": 0.0001404,
      "inclination_deg": 53.162,
      "raan_deg": 29.1155,
      "arg_perigee_deg": 95.0814,
      "mean_anomaly_deg": 265.0347,
      "mean_motion_rev_day": 15.3021914
    },
    {
      "epoch": "2026-03-29T04:57:05.362848Z",
      "apogee_km": 475.99343008905726,
      "perigee_km": 474.3774166616249,
      "latitude_deg": -5.267794360556011e-05,
      "longitude_deg": 125.19418426273621,
      "height_km": 476.1286101160105,
      "semi_major_axis_km": 6853.322423375341,
      "eccentricity": 0.0001179,
      "inclination_deg": 53.1617,
      "raan_deg": 26.0823,
      "arg_perigee_deg": 93.1778,
      "mean_anomaly_deg": 266.9357,
      "mean_motion_rev_day": 15.30209929
    },
    {
      "epoch": "2026-03-30T04:27:53.370432Z",
      "apogee_km": 475.9714823850636,
      "perigee_km": 474.5936709133748,
      "latitude_deg": 5.889751991222561e-05,
      "longitude_deg": 126.97587803157501,
      "height_km": 475.96916870791733,
      "semi_major_axis_km": 6853.419576649219,
      "eccentricity": 0.00010052,
      "inclination_deg": 53.1613,
      "raan_deg": 21.5296,
      "arg_perigee_deg": 72.0744,
      "mean_anomaly_deg": 288.0367,
      "mean_motion_rev_day": 15.30177391
    },
    {
      "epoch": "2026-03-30T12:18:09.815040Z",
      "apogee_km": 476.23731282466724,
      "perigee_km": 474.27737910960695,
      "latitude_deg": 1.7470918166661273e-05,
      "longitude_deg": 7.568337177926083,
      "height_km": 476.0116265832329,
      "semi_major_axis_km": 6853.394345967136,
      "eccentricity": 0.00014299,
      "inclination_deg": 53.162,
      "raan_deg": 20.0125,
      "arg_perigee_deg": 81.5617,
      "mean_anomaly_deg": 278.5546,
      "mean_motion_rev_day": 15.30185841
    },
    {
      "epoch": "2026-03-30T18:34:22.511424Z",
      "apogee_km": 475.9285598472243,
      "perigee_km": 474.55692442563213,
      "latitude_deg": 3.8201026654300744e-05,
      "longitude_deg": -87.95575636966105,
      "height_km": 476.0578547311147,
      "semi_major_axis_km": 6853.379742136428,
      "eccentricity": 0.00010007,
      "inclination_deg": 53.1608,
      "raan_deg": 18.7988,
      "arg_perigee_deg": 83.0139,
      "mean_anomaly_deg": 277.0976,
      "mean_motion_rev_day": 15.30190732
    },
    {
      "epoch": "2026-03-31T11:48:57.569472Z",
      "apogee_km": 476.1299523239177,
      "perigee_km": 474.27475336110274,
      "latitude_deg": 5.5283703154600666e-05,
      "longitude_deg": 9.354034318676186,
      "height_km": 476.1777743123652,
      "semi_major_axis_km": 6853.3393528425095,
      "eccentricity": 0.00013535,
      "inclination_deg": 53.1609,
      "raan_deg": 15.4628,
      "arg_perigee_deg": 94.7843,
      "mean_anomaly_deg": 265.3313,
      "mean_motion_rev_day": 15.30204259
    },
    {
      "epoch": "2026-04-01T11:19:45.759360Z",
      "apogee_km": 476.2455416093717,
      "perigee_km": 474.1621259958956,
      "latitude_deg": 5.520592172970944e-05,
      "longitude_deg": 11.137183901403114,
      "height_km": 476.1903373801547,
      "semi_major_axis_km": 6853.340833802634,
      "eccentricity": 0.000152,
      "inclination_deg": 53.1616,
      "raan_deg": 10.9124,
      "arg_perigee_deg": 94.8793,
      "mean_anomaly_deg": 265.2382,
      "mean_motion_rev_day": 15.30203763
    },
    {
      "epoch": "2026-04-02T10:50:33.988128Z",
      "apogee_km": 475.83003118478064,
      "perigee_km": 474.50090170443855,
      "latitude_deg": 6.761253244097114e-05,
      "longitude_deg": 12.920580014682267,
      "height_km": 476.2564317469685,
      "semi_major_axis_km": 6853.302466444609,
      "eccentricity": 9.697e-05,
      "inclination_deg": 53.1613,
      "raan_deg": 6.3624,
      "arg_perigee_deg": 106.8195,
      "mean_anomaly_deg": 253.2913,
      "mean_motion_rev_day": 15.30216613
    },
    {
      "epoch": "2026-04-02T21:48:55.440864Z",
      "apogee_km": 475.8894189112989,
      "perigee_km": 474.1951759253916,
      "latitude_deg": -4.431473692204051e-05,
      "longitude_deg": -154.2414191798585,
      "height_km": 476.37458607278785,
      "semi_major_axis_km": 6853.179297418345,
      "eccentricity": 0.00012361,
      "inclination_deg": 53.1616,
      "raan_deg": 4.2405,
      "arg_perigee_deg": 120.7981,
      "mean_anomaly_deg": 239.3141,
      "mean_motion_rev_day": 15.30257866
    },
    {
      "epoch": "2026-04-03T21:19:44.598432Z",
      "apogee_km": 476.07944570627114,
      "perigee_km": 474.51686249113664,
      "latitude_deg": 2.403590886612797e-05,
      "longitude_deg": -152.46336295339046,
      "height_km": 475.73279161999125,
      "semi_major_axis_km": 6853.435154098704,
      "eccentricity": 0.000114,
      "inclination_deg": 53.1603,
      "raan_deg": 359.689,
      "arg_perigee_deg": 53.5721,
      "mean_anomaly_deg": 306.5385,
      "mean_motion_rev_day": 15.30172174
    },
    {
      "epoch": "2026-04-04T20:50:31.976160Z",
      "apogee_km": 475.7942231531297,
      "perigee_km": 474.4290560241234,
      "latitude_deg": -1.0810496801709358e-05,
      "longitude_deg": -150.67944813676868,
      "height_km": 475.9334390522839,
      "semi_major_axis_km": 6853.248639588626,
      "eccentricity": 9.96e-05,
      "inclination_deg": 53.1607,
      "raan_deg": 355.136,
      "arg_perigee_deg": 83.5443,
      "mean_anomaly_deg": 276.5671,
      "mean_motion_rev_day": 15.30234641
    },
    {
      "epoch": "2026-04-04T23:58:38.730432Z",
      "apogee_km": 475.93862863964296,
      "perigee_km": 474.8538513984122,
      "latitude_deg": -3.105527148303691e-05,
      "longitude_deg": 161.55903537623976,
      "height_km": 476.29284740890824,
      "semi_major_axis_km": 6853.533240019027,
      "eccentricity": 7.914e-05,
      "inclination_deg": 53.1604,
      "raan_deg": 354.5314,
      "arg_perigee_deg": 89.7748,
      "mean_anomaly_deg": 270.3343,
      "mean_motion_rev_day": 15.30139325
    },
    {
      "epoch": "2026-04-05T20:21:20.928960Z",
      "apogee_km": 475.7613487706658,
      "perigee_km": 474.6113611117071,
      "latitude_deg": 1.156830915107916e-05,
      "longitude_deg": -148.89867226466993,
      "height_km": 476.0990895939974,
      "semi_major_axis_km": 6853.323354941186,
      "eccentricity": 8.39e-05,
      "inclination_deg": 53.1611,
      "raan_deg": 350.5864,
      "arg_perigee_deg": 91.3913,
      "mean_anomaly_deg": 268.7184,
      "mean_motion_rev_day": 15.30209617
    },
    {
      "epoch": "2026-04-05T21:55:24.060288Z",
      "apogee_km": 475.76726447250894,
      "perigee_km": 474.5754741470855,
      "latitude_deg": -2.423687290285647e-05,
      "longitude_deg": -172.778422692576,
      "height_km": 476.0947555630145,
      "semi_major_axis_km": 6853.308369309797,
      "eccentricity": 8.695e-05,
      "inclination_deg": 53.1612,
      "raan_deg": 350.2841,
      "arg_perigee_deg": 92.3693,
      "mean_anomaly_deg": 267.7407,
      "mean_motion_rev_day": 15.30214636
    },
    {
      "epoch": "2026-04-07T09:58:36.281280Z",
      "apogee_km": 475.79343345116104,
      "perigee_km": 474.5336597446849,
      "latitude_deg": 1.0227173425925002e-05,
      "longitude_deg": -2.03828197993037,
      "height_km": 475.90927339296405,
      "semi_major_axis_km": 6853.300546597922,
      "eccentricity": 9.191e-05,
      "inclination_deg": 53.1614,
      "raan_deg": 343.3058,
      "arg_perigee_deg": 75.9407,
      "mean_anomaly_deg": 284.1696,
      "mean_motion_rev_day": 15.30217256
    },
    {
      "epoch": "2026-04-07T20:56:58.780320Z",
      "apogee_km": 475.6257611040837,
      "perigee_km": 474.85544146170105,
      "latitude_deg": -4.16966197937938e-06,
      "longitude_deg": -169.20638170979367,
      "height_km": 476.04300794407044,
      "semi_major_axis_km": 6853.377601282892,
      "eccentricity": 5.62e-05,
      "inclination_deg": 53.1622,
      "raan_deg": 341.1821,
      "arg_perigee_deg": 75.4344,
      "mean_anomaly_deg": 284.6719,
      "mean_motion_rev_day": 15.30191449
    },
    {
      "epoch": "2026-04-08T09:29:24.517824Z",
      "apogee_km": 476.00151496684975,
      "perigee_km": 474.39783418499974,
      "latitude_deg": -9.21285821080099e-06,
      "longitude_deg": -0.2544459822550057,
      "height_km": 475.8887709432952,
      "semi_major_axis_km": 6853.336674575925,
      "eccentricity": 0.000117,
      "inclination_deg": 53.162,
      "raan_deg": 338.7563,
      "arg_perigee_deg": 74.8623,
      "mean_anomaly_deg": 285.2507,
      "mean_motion_rev_day": 15.30205156
    },
    {
      "epoch": "2026-04-09T21:32:38.018400Z",
      "apogee_km": 476.0797520287597,
      "perigee_km": 474.3102217097494,
      "latitude_deg": 2.2398636507412557e-05,
      "longitude_deg": 170.4808457842955,
      "height_km": 475.86732653641957,
      "semi_major_axis_km": 6853.331986869254,
      "eccentricity": 0.0001291,
      "inclination_deg": 53.1621,
      "raan_deg": 331.7785,
      "arg_perigee_deg": 75.201,
      "mean_anomaly_deg": 284.9134,
      "mean_motion_rev_day": 15.30206726
    },
    {
      "epoch": "2026-04-10T08:31:00.385248Z",
      "apogee_km": 476.08884196495,
      "perigee_km": 474.330273238269,
      "latitude_deg": -5.220636356605603e-05,
      "longitude_deg": 3.3126537031135745,
      "height_km": 476.0757239311666,
      "semi_major_axis_km": 6853.346557601609,
      "eccentricity": 0.0001283,
      "inclination_deg": 53.1609,
      "raan_deg": 329.6542,
      "arg_perigee_deg": 87.9145,
      "mean_anomaly_deg": 272.2002,
      "mean_motion_rev_day": 15.30201846
    }
  ]
}